{"fetched_at":"2026-03-29T16:36:15Z","count":15609,"tles":[{"name":"STARLINK-3256","line1":"1 50202U 21125AY  26087.60046691  .00000451  00000+0  46419-4 0  9992","line2":"2 50202  53.2165 154.2272 0001329  87.5052 272.6092 15.08836770239588","category":"Starlink"}]}